IRIDIUM 136             
1 42962U 17061H   23309.61091053  .00000664  00000+0  23000-3 0  9993
2 42962  86.3975  64.1693 0001781  89.4203 270.7197 14.34218487318013
